{"fetched_at":"2026-07-16T17:46:05.603Z","source":"https://celestrak.org/NORAD/elements/gp.php?GROUP=oneweb&FORMAT=JSON","constellation":"oneweb","records":[{"OBJECT_NAME":"ONEWEB-0206","OBJECT_ID":"2021-031T","EPOCH":"2026-07-16T04:30:25.217568","CLASSIFICATION_TYPE":"U","MEAN_MOTION":13.14501755,"ECCENTRICITY":0.00018919,"INCLINATION":87.8971,"RA_OF_ASC_NODE":283.9209,"ARG_OF_PERICENTER":101.7453,"MEAN_ANOMALY":258.3889,"EPHEMERIS_TYPE":0,"NORAD_CAT_ID":48227,"ELEMENT_SET_NO":999,"REV_AT_EPOCH":25203,"BSTAR":-0.00047710609,"MEAN_MOTION_DOT":-0.00000164,"MEAN_MOTION_DDOT":0},{"OBJECT_NAME":"ONEWEB-0182","OBJECT_ID":"2021-031U","EPOCH":"2026-07-16T04:23:33.345312","CLASSIFICATION_TYPE":"U","MEAN_MOTION":13.14504404,"ECCENTRICITY":0.00019188,"INCLINATION":87.8968,"RA_OF_ASC_NODE":283.9286,"ARG_OF_PERICENTER":93.9787,"MEAN_ANOMALY":266.1562,"EPHEMERIS_TYPE":0,"NORAD_CAT_ID":48228,"ELEMENT_SET_NO":999,"REV_AT_EPOCH":25224,"BSTAR":-0.00030572401,"MEAN_MOTION_DOT":-0.00000101,"MEAN_MOTION_DDOT":0},{"OBJECT_NAME":"ONEWEB-0186","OBJECT_ID":"2021-031V","EPOCH":"2026-07-16T04:39:33.304608","CLASSIFICATION_TYPE":"U","MEAN_MOTION":13.14503129,"ECCENTRICITY":0.0002135,"INCLINATION":87.8978,"RA_OF_ASC_NODE":283.9197,"ARG_OF_PERICENTER":97.2145,"MEAN_ANOMALY":262.9228,"EPHEMERIS_TYPE":0,"NORAD_CAT_ID":48229,"ELEMENT_SET_NO":999,"REV_AT_EPOCH":25219,"BSTAR":-0.00046561067,"MEAN_MOTION_DOT":-0.0000016,"MEAN_MOTION_DDOT":0},{"OBJECT_NAME":"ONEWEB-0181","OBJECT_ID":"2021-031W","EPOCH":"2026-07-15T18:59:31.346592","CLASSIFICATION_TYPE":"U","MEAN_MOTION":13.14501805,"ECCENTRICITY":0.000221,"INCLINATION":87.8963,"RA_OF_ASC_NODE":284.0243,"ARG_OF_PERICENTER":98.3344,"MEAN_ANOMALY":261.8036,"EPHEMERIS_TYPE":0,"NORAD_CAT_ID":48230,"ELEMENT_SET_NO":999,"REV_AT_EPOCH":25199,"BSTAR":0.0001941045,"MEAN_MOTION_DOT":8.5e-7,"MEAN_MOTION_DDOT":0},{"OBJECT_NAME":"ONEWEB-0188","OBJECT_ID":"2021-031X","EPOCH":"2026-07-16T05:02:23.480736","CLASSIFICATION_TYPE":"U","MEAN_MOTION":13.14502507,"ECCENTRICITY":0.00020741,"INCLINATION":87.8959,"RA_OF_ASC_NODE":283.9404,"ARG_OF_PERICENTER":97.3978,"MEAN_ANOMALY":262.7388,"EPHEMERIS_TYPE":0,"NORAD_CAT_ID":48231,"ELEMENT_SET_NO":999,"REV_AT_EPOCH":25195,"BSTAR":0.000015208205,"MEAN_MOTION_DOT":1.8e-7,"MEAN_MOTION_DDOT":0},{"OBJECT_NAME":"ONEWEB-0220","OBJECT_ID":"2021-031Y","EPOCH":"2026-07-16T04:09:53.554464","CLASSIFICATION_TYPE":"U","MEAN_MOTION":13.14494147,"ECCENTRICITY":0.00021928,"INCLINATION":87.8978,"RA_OF_ASC_NODE":283.925,"ARG_OF_PERICENTER":91.817,"MEAN_ANOMALY":268.3211,"EPHEMERIS_TYPE":0,"NORAD_CAT_ID":48232,"ELEMENT_SET_NO":999,"REV_AT_EPOCH":25221,"BSTAR":0.00020957538,"MEAN_MOTION_DOT":9e-7,"MEAN_MOTION_DDOT":0},{"OBJECT_NAME":"ONEWEB-0165","OBJECT_ID":"2021-031Z","EPOCH":"2026-07-16T04:50:58.627680","CLASSIFICATION_TYPE":"U","MEAN_MOTION":13.1450413,"ECCENTRICITY":0.00024523,"INCLINATION":87.8967,"RA_OF_ASC_NODE":283.9303,"ARG_OF_PERICENTER":101.1918,"MEAN_ANOMALY":258.9487,"EPHEMERIS_TYPE":0,"NORAD_CAT_ID":48233,"ELEMENT_SET_NO":999,"REV_AT_EPOCH":25217,"BSTAR":-0.00031275249,"MEAN_MOTION_DOT":-0.00000103,"MEAN_MOTION_DDOT":0},{"OBJECT_NAME":"ONEWEB-0199","OBJECT_ID":"2021-031AA","EPOCH":"2026-07-16T04:28:08.626944","CLASSIFICATION_TYPE":"U","MEAN_MOTION":13.14502449,"ECCENTRICITY":0.00018948,"INCLINATION":87.8977,"RA_OF_ASC_NODE":283.921,"ARG_OF_PERICENTER":100.7215,"MEAN_ANOMALY":259.4128,"EPHEMERIS_TYPE":0,"NORAD_CAT_ID":48234,"ELEMENT_SET_NO":999,"REV_AT_EPOCH":25207,"BSTAR":-0.00046983314,"MEAN_MOTION_DOT":-0.00000161,"MEAN_MOTION_DDOT":0},{"OBJECT_NAME":"ONEWEB-0203","OBJECT_ID":"2021-031AB","EPOCH":"2026-07-16T04:14:26.424672","CLASSIFICATION_TYPE":"U","MEAN_MOTION":13.14501444,"ECCENTRICITY":0.00020961,"INCLINATION":87.8974,"RA_OF_ASC_NODE":283.9254,"ARG_OF_PERICENTER":105.0659,"MEAN_ANOMALY":255.0703,"EPHEMERIS_TYPE":0,"NORAD_CAT_ID":48235,"ELEMENT_SET_NO":999,"REV_AT_EPOCH":25208,"BSTAR":-0.000079233409,"MEAN_MOTION_DOT":-1.7e-7,"MEAN_MOTION_DDOT":0},{"OBJECT_NAME":"ONEWEB-0197","OBJECT_ID":"2021-031AC","EPOCH":"2026-07-16T05:27:18.630144","CLASSIFICATION_TYPE":"U","MEAN_MOTION":13.145026,"ECCENTRICITY":0.00019682,"INCLINATION":87.8963,"RA_OF_ASC_NODE":283.8996,"ARG_OF_PERICENTER":91.6393,"MEAN_ANOMALY":268.4962,"EPHEMERIS_TYPE":0,"NORAD_CAT_ID":48236,"ELEMENT_SET_NO":999,"REV_AT_EPOCH":25200,"BSTAR":0.00066882448,"MEAN_MOTION_DOT":0.00000261,"MEAN_MOTION_DDOT":0},{"OBJECT_NAME":"ONEWEB-0194","OBJECT_ID":"2021-031AD","EPOCH":"2026-07-16T04:57:48.929184","CLASSIFICATION_TYPE":"U","MEAN_MOTION":13.14504522,"ECCENTRICITY":0.00019587,"INCLINATION":87.8966,"RA_OF_ASC_NODE":283.9268,"ARG_OF_PERICENTER":105.2932,"MEAN_ANOMALY":254.8414,"EPHEMERIS_TYPE":0,"NORAD_CAT_ID":48237,"ELEMENT_SET_NO":999,"REV_AT_EPOCH":25217,"BSTAR":-0.00019397477,"MEAN_MOTION_DOT":-5.9e-7,"MEAN_MOTION_DDOT":0},{"OBJECT_NAME":"ONEWEB-0193","OBJECT_ID":"2021-031AE","EPOCH":"2026-07-16T05:20:40.140384","CLASSIFICATION_TYPE":"U","MEAN_MOTION":13.14502771,"ECCENTRICITY":0.00018262,"INCLINATION":87.8966,"RA_OF_ASC_NODE":283.914,"ARG_OF_PERICENTER":110.4582,"MEAN_ANOMALY":249.6744,"EPHEMERIS_TYPE":0,"NORAD_CAT_ID":48238,"ELEMENT_SET_NO":999,"REV_AT_EPOCH":25212,"BSTAR":0.00054595678,"MEAN_MOTION_DOT":0.00000215,"MEAN_MOTION_DDOT":0},{"OBJECT_NAME":"ONEWEB-0191","OBJECT_ID":"2021-031AF","EPOCH":"2026-07-15T18:38:58.390944","CLASSIFICATION_TYPE":"U","MEAN_MOTION":13.14506187,"ECCENTRICITY":0.00019267,"INCLINATION":87.8977,"RA_OF_ASC_NODE":284.0033,"ARG_OF_PERICENTER":95.5221,"MEAN_ANOMALY":264.6129,"EPHEMERIS_TYPE":0,"NORAD_CAT_ID":48239,"ELEMENT_SET_NO":999,"REV_AT_EPOCH":25192,"BSTAR":0.00049298461,"MEAN_MOTION_DOT":0.00000196,"MEAN_MOTION_DDOT":0},{"OBJECT_NAME":"ONEWEB-0195","OBJECT_ID":"2021-031AG","EPOCH":"2026-07-16T05:03:31.882752","CLASSIFICATION_TYPE":"U","MEAN_MOTION":13.14503974,"ECCENTRICITY":0.0002457,"INCLINATION":87.8973,"RA_OF_ASC_NODE":283.9174,"ARG_OF_PERICENTER":99.2847,"MEAN_ANOMALY":260.8561,"EPHEMERIS_TYPE":0,"NORAD_CAT_ID":48240,"ELEMENT_SET_NO":999,"REV_AT_EPOCH":25196,"BSTAR":0.000068054664,"MEAN_MOTION_DOT":3.8e-7,"MEAN_MOTION_DDOT":0},{"OBJECT_NAME":"ONEWEB-0201","OBJECT_ID":"2021-031AH","EPOCH":"2026-07-16T04:46:35.928480","CLASSIFICATION_TYPE":"U","MEAN_MOTION":13.14502686,"ECCENTRICITY":0.00020348,"INCLINATION":87.8968,"RA_OF_ASC_NODE":283.9337,"ARG_OF_PERICENTER":90.714,"MEAN_ANOMALY":269.4223,"EPHEMERIS_TYPE":0,"NORAD_CAT_ID":48241,"ELEMENT_SET_NO":999,"REV_AT_EPOCH":25219,"BSTAR":-0.0003837883,"MEAN_MOTION_DOT":-0.00000129,"MEAN_MOTION_DDOT":0},{"OBJECT_NAME":"ONEWEB-0207","OBJECT_ID":"2021-031AJ","EPOCH":"2026-07-16T04:17:50.739936","CLASSIFICATION_TYPE":"U","MEAN_MOTION":13.14501182,"ECCENTRICITY":0.00020432,"INCLINATION":87.8975,"RA_OF_ASC_NODE":283.9239,"ARG_OF_PERICENTER":91.7628,"MEAN_ANOMALY":268.3736,"EPHEMERIS_TYPE":0,"NORAD_CAT_ID":48242,"ELEMENT_SET_NO":999,"REV_AT_EPOCH":25210,"BSTAR":-0.00018538695,"MEAN_MOTION_DOT":-5.6e-7,"MEAN_MOTION_DDOT":0},{"OBJECT_NAME":"ONEWEB-0208","OBJECT_ID":"2021-031AK","EPOCH":"2026-07-16T05:41:12.890400","CLASSIFICATION_TYPE":"U","MEAN_MOTION":13.14502475,"ECCENTRICITY":0.00023774,"INCLINATION":87.897,"RA_OF_ASC_NODE":283.9181,"ARG_OF_PERICENTER":101.761,"MEAN_ANOMALY":258.3786,"EPHEMERIS_TYPE":0,"NORAD_CAT_ID":48243,"ELEMENT_SET_NO":999,"REV_AT_EPOCH":25212,"BSTAR":0.00071211088,"MEAN_MOTION_DOT":0.00000277,"MEAN_MOTION_DDOT":0},{"OBJECT_NAME":"ONEWEB-0200","OBJECT_ID":"2021-031AL","EPOCH":"2026-07-16T04:48:41.931648","CLASSIFICATION_TYPE":"U","MEAN_MOTION":13.14502357,"ECCENTRICITY":0.00021254,"INCLINATION":87.898,"RA_OF_ASC_NODE":283.9146,"ARG_OF_PERICENTER":97.87,"MEAN_ANOMALY":262.2671,"EPHEMERIS_TYPE":0,"NORAD_CAT_ID":48244,"ELEMENT_SET_NO":999,"REV_AT_EPOCH":25204,"BSTAR":-0.00032400436,"MEAN_MOTION_DOT":-0.00000107,"MEAN_MOTION_DDOT":0},{"OBJECT_NAME":"ONEWEB-0217","OBJECT_ID":"2021-031AM","EPOCH":"2026-07-16T05:11:31.732800","CLASSIFICATION_TYPE":"U","MEAN_MOTION":13.14503597,"ECCENTRICITY":0.00024121,"INCLINATION":87.8978,"RA_OF_ASC_NODE":283.9155,"ARG_OF_PERICENTER":101.8083,"MEAN_ANOMALY":258.3317,"EPHEMERIS_TYPE":0,"NORAD_CAT_ID":48245,"ELEMENT_SET_NO":999,"REV_AT_EPOCH":25199,"BSTAR":0.0002975105,"MEAN_MOTION_DOT":0.00000123,"MEAN_MOTION_DDOT":0},{"OBJECT_NAME":"ONEWEB-0211","OBJECT_ID":"2021-045A","EPOCH":"2026-07-16T03:42:30.362976","CLASSIFICATION_TYPE":"U","MEAN_MOTION":13.16197405,"ECCENTRICITY":0.00026973,"INCLINATION":87.8988,"RA_OF_ASC_NODE":253.3043,"ARG_OF_PERICENTER":105.4787,"MEAN_ANOMALY":254.6641,"EPHEMERIS_TYPE":0,"NORAD_CAT_ID":48767,"ELEMENT_SET_NO":999,"REV_AT_EPOCH":24825,"BSTAR":0.00028581969,"MEAN_MOTION_DOT":0.00000121,"MEAN_MOTION_DDOT":0},{"OBJECT_NAME":"ONEWEB-0223","OBJECT_ID":"2021-045B","EPOCH":"2026-07-16T04:06:24.195168","CLASSIFICATION_TYPE":"U","MEAN_MOTION":13.15548316,"ECCENTRICITY":0.00023373,"INCLINATION":87.8993,"RA_OF_ASC_NODE":253.4172,"ARG_OF_PERICENTER":106.3148,"MEAN_ANOMALY":253.824,"EPHEMERIS_TYPE":0,"NORAD_CAT_ID":48768,"ELEMENT_SET_NO":999,"REV_AT_EPOCH":24821,"BSTAR":-0.00014834218,"MEAN_MOTION_DOT":-4.3e-7,"MEAN_MOTION_DDOT":0},{"OBJECT_NAME":"ONEWEB-0230","OBJECT_ID":"2021-045C","EPOCH":"2026-07-16T05:14:51.516384","CLASSIFICATION_TYPE":"U","MEAN_MOTION":13.15548321,"ECCENTRICITY":0.00019205,"INCLINATION":87.8981,"RA_OF_ASC_NODE":253.4189,"ARG_OF_PERICENTER":96.0126,"MEAN_ANOMALY":264.1223,"EPHEMERIS_TYPE":0,"NORAD_CAT_ID":48769,"ELEMENT_SET_NO":999,"REV_AT_EPOCH":24848,"BSTAR":0.00043164407,"MEAN_MOTION_DOT":0.00000175,"MEAN_MOTION_DDOT":0},{"OBJECT_NAME":"ONEWEB-0237","OBJECT_ID":"2021-045D","EPOCH":"2026-07-16T04:58:52.818528","CLASSIFICATION_TYPE":"U","MEAN_MOTION":13.15548183,"ECCENTRICITY":0.00024025,"INCLINATION":87.8982,"RA_OF_ASC_NODE":253.4231,"ARG_OF_PERICENTER":96.0427,"MEAN_ANOMALY":264.0978,"EPHEMERIS_TYPE":0,"NORAD_CAT_ID":48770,"ELEMENT_SET_NO":999,"REV_AT_EPOCH":24820,"BSTAR":0.000011632999,"MEAN_MOTION_DOT":1.7e-7,"MEAN_MOTION_DDOT":0}]}
